IRIDIUM 63              
1 25286U 98021B   25189.42436741  .00000252  00000+0  78979-4 0  9991
2 25286  86.3960  73.2221 0002080  89.9913 270.1522 14.36557707426896
IRIDIUM 69              
1 25319U 98026A   25189.44129406  .00000356  00000+0  10482-3 0  9991
2 25319  86.3962  86.4422 0001897  15.2711 344.8545 14.40984309426124
IRIDIUM 71              
1 25320U 98026B   25189.44534678  .00000297  00000+0  86001-4 0  9999
2 25320  86.3957  81.1269 0003549  51.5668 308.5849 14.41171905426654
IRIDIUM 73              
1 25344U 98032C   25189.56737188  .00000369  00000+0  86866-4 0  9995
2 25344  86.4397  37.7332 0001589  82.9745 277.1641 14.51732152433661
IRIDIUM 82              
1 25467U 98051A   25189.24654875  .00015039  00000+0  42193-3 0  9992
2 25467  86.3670  99.3779 0081861 214.6444 144.9460 15.33040399427186
